[{"OBJECT_NAME":"ONEWEB-0446","OBJECT_ID":"2022-012U","EPOCH":"2026-03-09T23:34:30.036576","MEAN_MOTION":13.10371259,"ECCENTRICITY":0.00019548,"INCLINATION":87.8771,"RA_OF_ASC_NODE":56.0374,"ARG_OF_PERICENTER":83.4044,"MEAN_ANOMALY":276.7306,"EPHEMERIS_TYPE":0,"CLASSIFICATION_TYPE":"U","NORAD_CAT_ID":51640,"ELEMENT_SET_NO":999,"REV_AT_EPOCH":19633,"BSTAR":-0.0015404097,"MEAN_MOTION_DOT":-5.25e-6,"MEAN_MOTION_DDOT":0},{"OBJECT_NAME":"COSMOS 1275 DEB","OBJECT_ID":"1981-053RC","EPOCH":"2026-03-08T02:17:11.079168","MEAN_MOTION":13.50009854,"ECCENTRICITY":0.01973466,"INCLINATION":83.1416,"RA_OF_ASC_NODE":193.3235,"ARG_OF_PERICENTER":107.3279,"MEAN_ANOMALY":254.9556,"EPHEMERIS_TYPE":0,"CLASSIFICATION_TYPE":"U","NORAD_CAT_ID":42140,"ELEMENT_SET_NO":999,"REV_AT_EPOCH":57188,"BSTAR":0.00069469474,"MEAN_MOTION_DOT":5.15e-6,"MEAN_MOTION_DDOT":0}]
